     3.05           NAVIGATION DATA     MIXED               RINEX VERSION / TYPE
GR50 V4.80          BKG Frankfurt       20250328 101115 UTC PGM / RUN BY / DATE 
gfzrnx-2.1.9        FILE MERGE          20250328 101139 UTC COMMENT             
BDSA   3.7253e-08  4.3958e-07 -3.3379e-06  5.4240E-06       IONOSPHERIC CORR    
BDSA   4.7497e-08  3.1292e-07 -2.9206e-06  4.8876E-06 A 09  IONOSPHERIC CORR    
BDSA   4.7497e-08  3.1292e-07 -2.9206e-06  4.8876E-06 B 12  IONOSPHERIC CORR    
BDSA   5.2154e-08  1.7136e-07 -1.9670e-06  3.1590E-06 C 37  IONOSPHERIC CORR    
BDSA   4.0047e-08  2.2352e-07 -1.9073e-06  2.8014E-06 E 60  IONOSPHERIC CORR    
BDSA   4.8429e-08  3.1292e-07 -2.9206e-06  4.8876E-06 F 14  IONOSPHERIC CORR    
BDSA   2.9802e-08  1.1176e-07 -1.1325e-06  1.7285E-06 G 46  IONOSPHERIC CORR    
BDSA   4.8429e-08  3.1292e-07 -2.9206e-06  4.8876E-06 H 14  IONOSPHERIC CORR    
BDSA   4.7497e-08  3.1292e-07 -2.9206e-06  4.8876E-06 I 12  IONOSPHERIC CORR    
BDSA   4.5635e-08  2.9802e-07 -2.5630e-06  3.9339E-06 J     IONOSPHERIC CORR    
BDSA   4.2841e-08  3.6508e-07 -2.8610e-06  4.4107E-06 K     IONOSPHERIC CORR    
BDSA   5.0291e-08  2.6077e-07 -2.5630e-06  4.1723E-06 M 24  IONOSPHERIC CORR    
BDSA   2.8871e-08  3.0547e-07 -2.0862e-06  2.9206E-06 N 16  IONOSPHERIC CORR    
BDSA   4.9360e-08  2.6822e-07 -2.6226e-06  4.3511E-06 O 08  IONOSPHERIC CORR    
BDSA   3.9116e-08  1.1176e-07 -1.2517e-06  1.9073E-06 Q 60  IONOSPHERIC CORR    
BDSA   4.9360e-08  2.9057e-07 -2.7418e-06  4.5896E-06 S 43  IONOSPHERIC CORR    
BDSA   4.3772e-08  3.0547e-07 -2.3246e-06  3.3379E-06 U 05  IONOSPHERIC CORR    
BDSA   4.8429e-08  3.1292e-07 -2.9206e-06  4.8876E-06 W 06  IONOSPHERIC CORR    
BDSB   1.0854e+05  6.7174e+05 -6.3570e+06  7.3400E+06       IONOSPHERIC CORR    
BDSB   1.3517e+05  2.9491e+05 -4.3254e+06  5.5706E+06 A 09  IONOSPHERIC CORR    
BDSB   1.3517e+05  2.9491e+05 -4.3254e+06  5.5706E+06 B 12  IONOSPHERIC CORR    
BDSB   1.3107e+05  4.4237e+05 -5.6361e+06  6.9468E+06 C 37  IONOSPHERIC CORR    
BDSB   1.1674e+05 -3.4406e+05  3.2768e+06 -2.6214E+06 E 60  IONOSPHERIC CORR    
BDSB   1.3517e+05  2.7853e+05 -4.2598e+06  5.4395E+06 F 14  IONOSPHERIC CORR    
BDSB   7.7824e+04  7.8643e+05 -2.9491e+06  1.7039E+06 G 46  IONOSPHERIC CORR    
BDSB   1.3517e+05  2.7853e+05 -4.2598e+06  5.4395E+06 H 14  IONOSPHERIC CORR    
BDSB   1.3517e+05  2.9491e+05 -4.3254e+06  5.5706E+06 I 12  IONOSPHERIC CORR    
BDSB   1.2083e+05  6.7174e+05 -7.2090e+06  8.3231E+06 J     IONOSPHERIC CORR    
BDSB   1.4336e+05  1.6384e+05 -4.2598e+06  5.8982E+06 K     IONOSPHERIC CORR    
BDSB   9.8304e+04  1.1960e+06 -8.3231e+06  8.3231E+06 M 24  IONOSPHERIC CORR    
BDSB   1.1878e+05 -2.7853e+05  2.2938e+06 -1.7695E+06 N 16  IONOSPHERIC CORR    
BDSB   1.0240e+05  1.0813e+06 -8.3231e+06  8.3231E+06 O 08  IONOSPHERIC CORR    
BDSB   1.2288e+05 -6.5536e+04 -6.5536e+04  6.5536E+05 Q 60  IONOSPHERIC CORR    
BDSB   1.0854e+05  8.8474e+05 -7.9954e+06  8.3231E+06 S 43  IONOSPHERIC CORR    
BDSB   1.0035e+05  8.6835e+05 -7.4056e+06  8.1265E+06 U 05  IONOSPHERIC CORR    
BDSB   1.3517e+05  2.7853e+05 -4.2598e+06  5.4395E+06 W 06  IONOSPHERIC CORR    
GAL    0.0000e+00  0.0000e+00  0.0000e+00   .0000E+00       IONOSPHERIC CORR    
GPSA   2.9802e-08  7.4506e-09 -1.7881e-07  0.0000E+00       IONOSPHERIC CORR    
GPSB   1.3312e+05  0.0000e+00 -2.6214e+05  2.6214E+05       IONOSPHERIC CORR    
QZSA   2.3283e-08 -2.9802e-08 -4.1723e-07 -4.1723E-07       IONOSPHERIC CORR    
QZSB   1.1469e+05 -1.8022e+05  3.2768e+05 -2.2938E+06       IONOSPHERIC CORR    
BDUT  0.0000000000E+00 9.769962617E-15 460385 1003          TIME SYSTEM CORR    
GAGP -2.6775524020E-09-1.243449788E-14 432000 2359          TIME SYSTEM CORR    
GAUT  9.3132257462E-10 0.000000000E+00 432000 2359          TIME SYSTEM CORR    
GLGP   .8381903172E-08  .000000000E+00 345600 2359          TIME SYSTEM CORR    
GLUT  1.3969838619E-09 0.000000000E+00 461718 2359          TIME SYSTEM CORR    
GPUT  1.8626451492E-09-1.776356839E-15  61440 2360          TIME SYSTEM CORR    
QZUT  0.0000000000E+00 0.000000000E+00  94208 2360          TIME SYSTEM CORR    
    18    18  1929     7                                    LEAP SECONDS        
                                                            END OF HEADER
E04 2025 03 27 17 50 00-1.922788214870e-04-9.649170351622e-12 0.000000000000e+00
     4.800000000000e+01-1.517187500000e+02 3.413713623446e-09 2.936688359875e+00
    -7.100403308868e-06 3.767189336941e-04 3.453344106674e-06 5.440604698181e+03
     4.098000000000e+05 1.452863216400e-07-1.172857474839e+00-9.872019290924e-08
     9.636054822190e-01 2.710625000000e+02-1.165105237870e+00-6.052752121421e-09
    -5.885959459551e-10 2.580000000000e+02 2.359000000000e+03 0.000000000000e+00
     3.120000000000e+00 0.000000000000e+00-4.190951585770e-09 0.000000000000e+00
     4.105000000000e+05                                                         
E04 2025 03 27 18 00 00-1.922845840454e-04-9.649170351622e-12 0.000000000000e+00
     4.900000000000e+01-1.526875000000e+02 3.420499620396e-09 3.011225690574e+00
    -7.148832082748e-06 3.766139270738e-04 3.440305590630e-06 5.440604936600e+03
     4.104000000000e+05 1.564621925354e-07-1.172860950732e+00-7.450580596924e-08
     9.636051150266e-01 2.713125000000e+02-1.165256674761e+00-6.067395588523e-09
    -5.982392047784e-10 2.580000000000e+02 2.359000000000e+03 0.000000000000e+00
     3.120000000000e+00 0.000000000000e+00-4.190951585770e-09 0.000000000000e+00
     4.111000000000e+05                                                         
E04 2025 03 27 18 00 00-1.922845840454e-04-9.649170351622e-12 0.000000000000e+00
     4.900000000000e+01-1.526875000000e+02 3.420499620396e-09 3.011225690574e+00
    -7.148832082748e-06 3.766139270738e-04 3.440305590630e-06 5.440604936600e+03
     4.104000000000e+05 1.564621925354e-07-1.172860950732e+00-7.450580596924e-08
     9.636051150266e-01 2.713125000000e+02-1.165256674761e+00-6.067395588523e-09
    -5.982392047784e-10 5.170000000000e+02 2.359000000000e+03 0.000000000000e+00
     3.120000000000e+00 0.000000000000e+00-4.190951585770e-09-4.889443516731e-09
     4.110640000000e+05                                                         
E04 2025 03 28 05 20 00-1.926805125549e-04-9.663381206337e-12 0.000000000000e+00
     1.170000000000e+02-1.277812500000e+02 3.635865734116e-09 1.781277556812e+00
    -5.945563316345e-06 3.774618962780e-04 3.317371010780e-06 5.440605678558e+03
     4.512000000000e+05 5.029141902924e-08-1.173110223195e+00-9.872019290924e-08
     9.635789390334e-01 2.699062500000e+02-1.160246477311e+00-6.152756286996e-09
    -4.968064082668e-10 2.580000000000e+02 2.359000000000e+03 0.000000000000e+00
     3.120000000000e+00 0.000000000000e+00-5.587935447693e-09 0.000000000000e+00
     4.538000000000e+05                                                         
E04 2025 03 28 05 50 00-1.926980912685e-04-9.691802915768e-12 0.000000000000e+00
     1.200000000000e+02-1.299062500000e+02 3.660866775510e-09 2.005567656789e+00
    -6.040558218956e-06 3.781194100156e-04 3.051012754440e-06 5.440604124069e+03
     4.530000000000e+05 7.450580596924e-08-1.173121442314e+00-5.401670932770e-08
     9.635778988986e-01 2.759375000000e+02-1.161379110913e+00-6.158827968477e-09
    -4.675194740627e-10 2.580000000000e+02 2.359000000000e+03 0.000000000000e+00
     3.120000000000e+00 0.000000000000e+00-5.587935447693e-09 0.000000000000e+00
     4.539000000000e+05                                                         
E04 2025 03 28 05 50 00-1.926982076839e-04-9.691802915768e-12 0.000000000000e+00
     1.200000000000e+02-1.299062500000e+02 3.660866775510e-09 2.005567656789e+00
    -6.040558218956e-06 3.781194100156e-04 3.051012754440e-06 5.440604124069e+03
     4.530000000000e+05 7.450580596924e-08-1.173121442314e+00-5.401670932770e-08
     9.635778988986e-01 2.759375000000e+02-1.161379110913e+00-6.158827968477e-09
    -4.675194740627e-10 5.170000000000e+02 2.359000000000e+03 0.000000000000e+00
     3.120000000000e+00 0.000000000000e+00-5.587935447693e-09-6.286427378654e-09
     4.538140000000e+05                                                         
E04 2025 03 28 06 00 00-1.927039702423e-04-9.691802915768e-12 0.000000000000e+00
     1.210000000000e+02-1.299687500000e+02 3.667652772460e-09 2.080249506239e+00
    -6.044283509254e-06 3.783652791753e-04 2.950429916382e-06 5.440603590012e+03
     4.536000000000e+05 7.450580596924e-08-1.173125182996e+00-4.097819328308e-08
     9.635775755937e-01 2.781250000000e+02-1.161675088499e+00-6.158827968477e-09
    -4.593048461762e-10 2.580000000000e+02 2.359000000000e+03 0.000000000000e+00
     3.120000000000e+00 0.000000000000e+00-5.587935447693e-09 0.000000000000e+00
     4.545500000000e+05                                                         
E04 2025 03 28 06 00 00-1.927040866576e-04-9.706013770483e-12 0.000000000000e+00
     1.210000000000e+02-1.299687500000e+02 3.667652772460e-09 2.080249506239e+00
    -6.044283509254e-06 3.783652791753e-04 2.950429916382e-06 5.440603590012e+03
     4.536000000000e+05 7.450580596924e-08-1.173125182996e+00-4.097819328308e-08
     9.635775755937e-01 2.781250000000e+02-1.161675088499e+00-6.158827968477e-09
    -4.593048461762e-10 5.170000000000e+02 2.359000000000e+03 0.000000000000e+00
     3.120000000000e+00 0.000000000000e+00-5.587935447693e-09-6.286427378654e-09
     4.542640000000e+05                                                         
